{
    "links": {
        "self": "http://www.neowsapp.com/rest/v1/neo/3826759?api_key=iIulBulltgU6a56xZRHN4H3l9WmuAYTsLGpBGhQ2"
    },
    "id": "3826759",
    "neo_reference_id": "3826759",
    "name": "(2018 PM20)",
    "designation": "2018 PM20",
    "nasa_jpl_url": "http://ssd.jpl.nasa.gov/sbdb.cgi?sstr=3826759",
    "absolute_magnitude_h": 26.3,
    "estimated_diameter": {
        "kilometers": {
            "estimated_diameter_min": 0.0146067964,
            "estimated_diameter_max": 0.0326617897
        },
        "meters": {
            "estimated_diameter_min": 14.6067964271,
            "estimated_diameter_max": 32.6617897446
        },
        "miles": {
            "estimated_diameter_min": 0.0090762397,
            "estimated_diameter_max": 0.020295089
        },
        "feet": {
            "estimated_diameter_min": 47.92256199,
            "estimated_diameter_max": 107.1581062656
        }
    },
    "is_potentially_hazardous_asteroid": false,
    "close_approach_data": [
        {
            "close_approach_date": "2018-08-16",
            "close_approach_date_full": "2018-Aug-16 19:11",
            "epoch_date_close_approach": 1534446660000,
            "relative_velocity": {
                "kilometers_per_second": "8.9861436822",
                "kilometers_per_hour": "32350.1172558078",
                "miles_per_hour": "20101.1048026435"
            },
            "miss_distance": {
                "astronomical": "0.0205970504",
                "lunar": "8.0122526056",
                "kilometers": "3081274.868122648",
                "miles": "1914615.4211546224"
            },
            "orbiting_body": "Earth"
        }
    ],
    "orbital_data": {
        "orbit_id": "1",
        "orbit_determination_date": "2018-08-13 18:42:03",
        "first_observation_date": "2018-08-12",
        "last_observation_date": "2018-08-13",
        "data_arc_in_days": 1,
        "observations_used": 19,
        "orbit_uncertainty": "8",
        "minimum_orbit_intersection": ".00865309",
        "jupiter_tisserand_invariant": "3.668",
        "epoch_osculation": "2458343.5",
        "eccentricity": ".510333754682138",
        "semi_major_axis": "1.998058476214727",
        "inclination": "3.923122982371805",
        "ascending_node_longitude": "141.7292129367457",
        "orbital_period": "1031.598539041548",
        "perihelion_distance": ".978381791973594",
        "perihelion_argument": "213.3091072356005",
        "aphelion_distance": "3.01773516045586",
        "perihelion_time": "2458372.550147884476",
        "mean_anomaly": "349.8622837832556",
        "mean_motion": ".3489729641673144",
        "equinox": "J2000",
        "orbit_class": {
            "orbit_class_type": "APO",
            "orbit_class_description": "Near-Earth asteroid orbits which cross the Earth’s orbit similar to that of 1862 Apollo",
            "orbit_class_range": "a (semi-major axis) > 1.0 AU; q (perihelion) < 1.017 AU"
        }
    },
    "is_sentry_object": false
}